{
"type": "FeatureCollection",
"name": "Nyamira_health_wide",
"crs": { "type": "name", "properties": { "name": "urn:ogc:def:crs:OGC:1.3:CRS84" } },
"features": [
{ "type": "Feature", "properties": { "name": "Itibo Health Centre S.D.A.", "amenity": "hospital", "healthcare": "hospital" }, "geometry": { "type": "Point", "coordinates": [ 35.0038407, -0.5586633 ] } },
{ "type": "Feature", "properties": { "name": "Nyamira County Referral Hospital", "amenity": "hospital", "healthcare": "hospital" }, "geometry": { "type": "Point", "coordinates": [ 34.9290872, -0.5577462 ] } },
{ "type": "Feature", "properties": { "name": "Kinara Hospital", "amenity": "hospital", "healthcare": "hospital" }, "geometry": { "type": "Point", "coordinates": [ 34.9354256, -0.5811292 ] } },
{ "type": "Feature", "properties": { "name": "girango dispensary", "amenity": "hospital", "healthcare": null }, "geometry": { "type": "Point", "coordinates": [ 34.864156312442908, -0.70930165 ] } },
{ "type": "Feature", "properties": { "name": "Tombe Dispensary", "amenity": "hospital", "healthcare": "counselling" }, "geometry": { "type": "Point", "coordinates": [ 34.874286153415134, -0.6484721 ] } },
{ "type": "Feature", "properties": { "name": "Itibo Health Centre S.D.A.", "amenity": "hospital", "healthcare": "counselling" }, "geometry": { "type": "Point", "coordinates": [ 35.00388504104523, -0.558719 ] } }
]
}
